      2.10          N: GNSS NAV DATA                        RINEX VERSION / TYPE
fic2rin                                 11/23/2024 00:59:02 PGM / RUN BY / DATE
                                                            END OF HEADER
6  24 11 22  1 59 44.0 -.133078079671D-03 -.295585778076D-10  .000000000000D+00
     .540000000000D+02  .429375000000D+02  .385301763651D-08  .633850775458D+00
     .212714076042D-05  .330224714708D-02  .629015266895D-05  .515373726654D+04
     .439184000000D+06 -.745058059692D-08 -.109453989945D+01 -.596046447754D-07
     .989270963815D+00  .273750000000D+03 -.767237847999D+00 -.784568394709D-08
    -.478591363823D-10  .100000000000D+01  .234100000000D+04  .000000000000D+00
     .240000000000D+01  .000000000000D+00  .372529029846D-08  .540000000000D+02
     .432000000000D+06  .400000000000D+01
16 24 11 23  0  0  0.0 -.121502205729D-03  .977706804406D-11  .000000000000D+00
     .620000000000D+02  .343750000000D+02  .474519765653D-08  .251835551118D+01
     .166147947311D-05  .142603132408D-01  .724568963051D-05  .515365038681D+04
     .518400000000D+06 -.521540641785D-07 -.312062639110D+01 -.242143869400D-06
     .961024937152D+00  .240343750000D+03  .854682248901D+00 -.787247077715D-08
     .757174396496D-10  .100000000000D+01  .234100000000D+04  .000000000000D+00
     .240000000000D+01  .000000000000D+00 -.102445483208D-07  .620000000000D+02
     .511200000000D+06  .400000000000D+01
9  24 11 23  0  0  0.0  .455747358501D-03  .170530256582D-10  .000000000000D+00
     .930000000000D+02 -.637500000000D+02  .441411243693D-08  .206800952961D+01
    -.325404107571D-05  .318193691783D-02  .670179724693D-05  .515356168175D+04
     .518400000000D+06  .279396772385D-07  .956009335683D+00  .484287738800D-07
     .959874592001D+00  .248218750000D+03  .201555207268D+01 -.801676250177D-08
     .221437795202D-10  .100000000000D+01  .234100000000D+04  .000000000000D+00
     .240000000000D+01  .000000000000D+00  .465661287308D-09  .930000000000D+02
     .511200000000D+06  .400000000000D+01
8  24 11 23  0  0  0.0  .420639757067D-03  .989075488178D-11  .000000000000D+00
     .660000000000D+02  .157812500000D+02  .500235122515D-08  .152971957816D+01
     .108219683170D-05  .100046485895D-01  .706315040588D-05  .515371365929D+04
     .518400000000D+06 -.316649675369D-07 -.219775874474D+01  .158324837685D-06
     .950472947082D+00  .239031250000D+03  .381417208152D+00 -.836892002768D-08
    -.404659712844D-09  .100000000000D+01  .234100000000D+04  .000000000000D+00
     .240000000000D+01  .000000000000D+00  .465661287308D-08  .660000000000D+02
     .511200000000D+06  .400000000000D+01
32 24 11 23  0  0  0.0 -.569916795939D-03  .545696821064D-11  .000000000000D+00
     .520000000000D+02 -.784687500000D+02  .432518016111D-08  .221368225693D+01
    -.402703881264D-05  .804828375112D-02  .704824924469D-05  .515375777435D+04
     .518400000000D+06  .745058059692D-08  .971337710857D+00 -.188127160072D-06
     .963179101579D+00  .243593750000D+03 -.212840037080D+01 -.799319009131D-08
     .360729311538D-10  .100000000000D+01  .234100000000D+04  .000000000000D+00
     .240000000000D+01  .000000000000D+00  .931322574615D-09  .520000000000D+02
     .511200000000D+06  .400000000000D+01
30 24 11 23  0  0  0.0 -.276387669146D-03  .784439180279D-11  .000000000000D+00
     .350000000000D+02 -.318750000000D+01  .502520932014D-08 -.140609498075D+01
    -.244006514549D-06  .715285376646D-02  .903010368347D-05  .515377432632D+04
     .518400000000D+06  .158324837685D-06  .202692345780D+01 -.651925802231D-07
     .935235903346D+00  .187031250000D+03 -.246155531903D+01 -.816212569958D-08
     .238224208709D-09  .100000000000D+01  .234100000000D+04  .000000000000D+00
     .240000000000D+01  .000000000000D+00  .372529029846D-08  .350000000000D+02
     .511200000000D+06  .400000000000D+01
26 24 11 23  0  0  0.0  .168872065842D-04 -.133013600134D-10  .000000000000D+00
     .620000000000D+02  .350000000000D+02  .543236913712D-08 -.291941498245D+01
     .166520476341D-05  .960147113074D-02  .752508640289D-05  .515373079300D+04
     .518400000000D+06 -.875443220139D-07  .299057562319D+01 -.188127160072D-06
     .930416975122D+00  .220968750000D+03  .582137365981D+00 -.829427406124D-08
     .142505935944D-09  .100000000000D+01  .234100000000D+04  .000000000000D+00
     .240000000000D+01  .000000000000D+00  .651925802231D-08  .620000000000D+02
     .511200000000D+06  .400000000000D+01
20 24 11 23  0  0  0.0  .368506647646D-03 -.341060513165D-12  .000000000000D+00
     .370000000000D+02  .531250000000D+01  .470412451710D-08 -.854457666106D-01
     .340864062309D-06  .385581527371D-02  .470690429211D-05  .515363938904D+04
     .518400000000D+06  .102445483208D-06 -.245076328459D+00  .782310962677D-07
     .956496848744D+00  .287843750000D+03 -.244470247935D+01 -.836499129261D-08
     .101789954246D-09  .100000000000D+01  .234100000000D+04  .000000000000D+00
     .240000000000D+01  .000000000000D+00 -.838190317154D-08  .370000000000D+02
     .511200000000D+06  .400000000000D+01
17 24 11 23  0  0  0.0  .548243522644D-03 -.148929757415D-10  .000000000000D+00
     .600000000000D+02  .137187500000D+02  .445982862691D-08  .147156729714D+01
     .428408384323D-06  .134989949875D-01  .689923763275D-05  .515357991409D+04
     .518400000000D+06  .165775418282D-06 -.210021931818D+01 -.245869159698D-06
     .966207788193D+00  .246718750000D+03 -.126765091347D+01 -.797783230874D-08
    -.317870383435D-09  .100000000000D+01  .234100000000D+04  .000000000000D+00
     .240000000000D+01  .000000000000D+00 -.111758708954D-07  .600000000000D+02
     .511200000000D+06  .400000000000D+01
25 24 11 23  0  0  0.0  .498795881867D-03 -.341060513165D-12  .000000000000D+00
     .640000000000D+02  .329687500000D+02  .505199615020D-08 -.215820246100D+01
     .161491334438D-05  .120962565998D-01  .654719769955D-05  .515369916534D+04
     .518400000000D+06  .158324837685D-06  .305637685916D+01 -.335276126862D-07
     .949678401163D+00  .244375000000D+03  .109865144681D+01 -.806569311135D-08
     .219652006531D-09  .100000000000D+01  .234100000000D+04  .000000000000D+00
     .340000000000D+01  .000000000000D+00  .558793544769D-08  .640000000000D+02
     .511200000000D+06  .400000000000D+01
19 24 11 23  0  0  0.0  .565863680094D-03  .443378667114D-11  .000000000000D+00
     .690000000000D+02  .216562500000D+02  .440232623170D-08 -.294563756958D+01
     .119581818581D-05  .995948375203D-02  .746734440327D-05  .515359278488D+04
     .518400000000D+06 -.113621354103D-06 -.205598135864D+01  .130385160446D-06
     .965394500830D+00  .238750000000D+03  .268484373852D+01 -.783568353053D-08
    -.284297556420D-09  .100000000000D+01  .234100000000D+04  .000000000000D+00
     .240000000000D+01  .000000000000D+00 -.153668224812D-07  .690000000000D+02
     .511200000000D+06  .400000000000D+01
12 24 11 23  0  0  0.0 -.553828664124D-03 -.250111042988D-11  .000000000000D+00
     .166000000000D+03  .333437500000D+02  .482698677766D-08 -.195433495342D+01
     .190734863281D-05  .884904398117D-02  .660866498947D-05  .515378607941D+04
     .518400000000D+06  .145286321640D-06 -.313826401025D+01  .949949026108D-07
     .961639206213D+00  .251406250000D+03  .145768187999D+01 -.801104797802D-08
     .985755346381D-10  .100000000000D+01  .234100000000D+04  .000000000000D+00
     .240000000000D+01  .000000000000D+00 -.125728547573D-07  .166000000000D+03
     .511200000000D+06  .400000000000D+01
28 24 11 23  0  0  0.0 -.487163197249D-03 -.114823706099D-10  .000000000000D+00
     .151000000000D+03 -.224375000000D+02  .440268338944D-08 -.244882742996D+01
    -.126473605633D-05  .479908427224D-03  .976771116257D-05  .515376549149D+04
     .518400000000D+06  .149011611938D-07  .199795992394D+01  .223517417908D-07
     .961117162433D+00  .185937500000D+03  .140736094031D+01 -.790711507737D-08
     .245724521127D-09  .100000000000D+01  .234100000000D+04  .000000000000D+00
     .240000000000D+01  .000000000000D+00 -.931322574615D-08  .151000000000D+03
     .511200000000D+06  .400000000000D+01
22 24 11 23  0  0  0.0 -.814008526504D-04 -.272848410532D-11  .000000000000D+00
     .151000000000D+03  .346250000000D+02  .474448334106D-08  .200105559172D+01
     .175647437572D-05  .137502112193D-01  .634789466858D-05  .515367880821D+04
     .518400000000D+06  .204890966415D-06 -.311733131441D+01  .111758708954D-07
     .960379234370D+00  .255062500000D+03 -.108744158687D+01 -.792533012181D-08
    -.878608026122D-10  .100000000000D+01  .234100000000D+04  .000000000000D+00
     .240000000000D+01  .000000000000D+00 -.111758708954D-07  .151000000000D+03
     .511200000000D+06  .400000000000D+01
21 24 11 23  0  0  0.0  .968035310507D-04 -.909494701773D-12  .000000000000D+00
     .144000000000D+03  .232187500000D+02  .448804408791D-08  .133951791982D+01
     .134296715260D-05  .256220565643D-01  .652484595776D-05  .515363455772D+04
     .518400000000D+06  .368803739548D-06 -.120577591409D+01  .303611159325D-06
     .960775869497D+00  .243593750000D+03 -.489758840833D+00 -.797354641593D-08
    -.388944772540D-09  .100000000000D+01  .234100000000D+04  .000000000000D+00
     .240000000000D+01  .000000000000D+00 -.102445483208D-07  .144000000000D+03
     .511200000000D+06  .400000000000D+01
23 24 11 23  0  0  0.0  .368826556951D-03  .784439180279D-11  .000000000000D+00
     .119000000000D+03 -.709375000000D+01  .402838208400D-08 -.162793489482D+01
    -.312924385071D-06  .491647829767D-02  .488385558128D-05  .515362107658D+04
     .518400000000D+06 -.875443220139D-07 -.919062264347D-01 -.134110450745D-06
     .982105674449D+00  .298968750000D+03 -.289891123028D+01 -.792890169915D-08
     .145363197818D-09  .100000000000D+01  .234100000000D+04  .000000000000D+00
     .240000000000D+01  .000000000000D+00 -.838190317154D-08  .375000000000D+03
     .511200000000D+06  .400000000000D+01
